{
  "norad_id": 68860,
  "name": "STARLINK-37388",
  "history": [
    {
      "epoch": "2026-05-02T10:00:03.000096Z",
      "apogee_km": 270.90910666838954,
      "perigee_km": 269.204509775961,
      "latitude_deg": -64.88494047647004,
      "longitude_deg": -69.99097727390576,
      "height_km": 295.6381607236759,
      "semi_major_axis_km": 6648.193808222175,
      "eccentricity": 0.0001282,
      "inclination_deg": 97.2809,
      "raan_deg": 136.0815,
      "arg_perigee_deg": 84.6607,
      "mean_anomaly_deg": 161.0275,
      "mean_motion_rev_day": 16.01574903
    }
  ]
}