{"fetched_at":"2026-05-03T06:27:58Z","count":17151,"tles":[{"name":"STARLINK-37388","line1":"1 68860U 26094X   26122.41670139 -.01716912  90951-3 -31244-2 0  9995","line2":"2 68860  97.2809 136.0815 0001282  84.6607 161.0275 16.01574903  2003","category":"Starlink"}]}